[{"OBJECT_NAME":"STARLINK-35146","OBJECT_ID":"2025-192T","EPOCH":"2026-03-09T17:56:44.636640","MEAN_MOTION":15.31027108,"ECCENTRICITY":8.437e-5,"INCLINATION":53.1588,"RA_OF_ASC_NODE":232.0446,"ARG_OF_PERICENTER":78.0812,"MEAN_ANOMALY":282.0284,"EPHEMERIS_TYPE":0,"CLASSIFICATION_TYPE":"U","NORAD_CAT_ID":65421,"ELEMENT_SET_NO":999,"REV_AT_EPOCH":2938,"BSTAR":0.0010564982,"MEAN_MOTION_DOT":0.00031879,"MEAN_MOTION_DDOT":0},{"OBJECT_NAME":"PUCP-SAT 1","OBJECT_ID":"2013-066AC","EPOCH":"2026-03-09T22:02:13.763904","MEAN_MOTION":15.29426022,"ECCENTRICITY":0.00136836,"INCLINATION":97.5787,"RA_OF_ASC_NODE":61.0032,"ARG_OF_PERICENTER":300.1183,"MEAN_ANOMALY":59.87,"EPHEMERIS_TYPE":0,"CLASSIFICATION_TYPE":"U","NORAD_CAT_ID":39442,"ELEMENT_SET_NO":999,"REV_AT_EPOCH":66907,"BSTAR":0.00088755185,"MEAN_MOTION_DOT":0.00025373,"MEAN_MOTION_DDOT":0}]
